OBJECT_NAME,OBJECT_ID,EPOCH,MEAN_MOTION,ECCENTRICITY,INCLINATION,RA_OF_ASC_NODE,ARG_OF_PERICENTER,MEAN_ANOMALY,EPHEMERIS_TYPE,CLASSIFICATION_TYPE,NORAD_CAT_ID,ELEMENT_SET_NO,REV_AT_EPOCH,BSTAR,MEAN_MOTION_DOT,MEAN_MOTION_DDOT
ONEWEB-0068,2020-020Y,2026-07-08T21:33:01.440576,13.11415855,.00016487,87.8886,16.7418,88.9524,271.1793,0,U,45446,999,30544,.14748069E-2,.535E-5,0
ONEWEB-0046,2020-020Z,2026-07-08T23:10:52.300704,13.11417909,.00017378,87.8876,16.7326,80.7484,279.3841,0,U,45447,999,30546,.15536824E-2,.563E-5,0
ONEWEB-0063,2020-020AA,2026-07-08T22:02:41.823168,13.11414972,.00019444,87.8880,16.7405,87.3708,272.7642,0,U,45448,999,30554,-.39904025E-3,-.129E-5,0
ONEWEB-0019,2020-020AB,2026-07-08T22:58:25.598208,13.11412066,.00018407,87.8881,16.7201,95.9205,264.2133,0,U,45449,999,30539,-.81389315E-3,-.276E-5,0
ONEWEB-0094,2020-020AC,2026-07-08T22:05:48.014304,13.17648837,.00017002,87.9146,1.5268,97.4525,262.6800,0,U,45450,999,30917,.24231373E-4,.22E-6,0
ONEWEB-0087,2020-020AD,2026-07-08T22:16:56.510976,13.11415927,.00015464,87.8898,16.7166,90.6875,269.4430,0,U,45451,999,30543,-.13954507E-2,-.482E-5,0
ONEWEB-0082,2020-020AE,2026-07-08T22:12:03.771360,13.11415644,.00014042,87.8889,16.7322,80.9003,279.2284,0,U,45452,999,30552,-.12050315E-2,-.414E-5,0
ONEWEB-0050,2020-020AF,2026-07-08T15:03:34.873344,14.90459345,.00009366,88.9290,230.2974,205.3847,154.7336,0,U,45453,999,34357,.13970834E-3,.1383E-4,0
ONEWEB-0034,2020-020AG,2026-07-08T23:06:11.981088,13.11417720,.00017643,87.8886,16.7339,89.4648,270.6682,0,U,45454,999,30544,.12043188E-2,.44E-5,0
ONEWEB-0060,2020-020AH,2026-07-08T11:02:04.578144,13.11414617,.00009542,87.8881,16.8304,108.3974,251.7257,0,U,45455,999,30533,-.84570821E-3,-.287E-5,0
ONEWEB-0086,2020-020AJ,2026-07-08T21:30:34.985664,13.11414576,.00016075,87.8892,16.7405,114.3631,245.7665,0,U,45456,999,30545,.86944117E-3,.321E-5,0
ONEWEB-0088,2020-020AK,2026-07-08T22:48:52.974432,13.11418591,.00018444,87.8896,16.7040,76.3464,283.7869,0,U,45457,999,30539,-.62961736E-4,-.1E-6,0
ONEWEB-0102,2020-100A,2026-07-08T22:30:25.425792,13.12443829,.00019485,87.8954,346.3490,104.2494,255.8851,0,U,47258,999,26758,-.5105199E-3,-.171E-5,0
ONEWEB-0109,2020-100B,2026-07-08T22:42:37.572480,13.12444343,.00019971,87.8963,346.3325,97.5694,262.5661,0,U,47259,999,26741,.26929819E-3,.11E-5,0
ONEWEB-0110,2020-100C,2026-07-08T16:02:32.791776,13.12442204,.00017207,87.8965,346.3717,104.7521,255.3798,0,U,47260,999,26754,.85464385E-3,.32E-5,0
ONEWEB-0111,2020-100D,2026-07-08T22:15:47.023776,13.12443290,.00017241,87.8962,346.3392,95.5388,264.5937,0,U,47261,999,26741,-.11808667E-2,-.412E-5,0
ONEWEB-0114,2020-100E,2026-07-08T21:09:55.316736,13.12442572,.00020471,87.8965,346.3462,95.9180,264.2182,0,U,47262,999,26736,.10286296E-2,.383E-5,0
ONEWEB-0117,2020-100F,2026-07-08T20:57:43.242624,13.12443186,.00018331,87.8961,346.3377,95.2136,264.9202,0,U,47263,999,26737,.5970496E-3,.228E-5,0
ONEWEB-0118,2020-100G,2026-07-08T16:17:09.744000,13.12440980,.00020642,87.8963,346.3791,88.5036,271.6329,0,U,47264,999,26754,-.20603608E-3,-.61E-6,0
ONEWEB-0119,2020-100H,2026-07-08T22:23:06.088704,13.12443345,.00018575,87.8950,346.3438,95.4398,264.6943,0,U,47265,999,26755,-.92777823E-3,-.321E-5,0
ONEWEB-0120,2020-100J,2026-07-08T21:07:40.771200,13.12442466,.00020302,87.8953,346.3555,96.6369,263.4991,0,U,47266,999,26757,.10861011E-2,.403E-5,0
ONEWEB-0121,2020-100K,2026-07-08T22:40:10.661376,13.12443326,.00015271,87.8963,346.3308,95.3688,264.7615,0,U,47267,999,26749,.40189807E-4,.27E-6,0
ONEWEB-0122,2020-100L,2026-07-08T22:31:37.752960,13.12445473,.00019266,87.8964,346.3369,100.1600,259.9746,0,U,47268,999,26740,-.44151619E-3,-.146E-5,0
ONEWEB-0123,2020-100M,2026-07-08T22:25:32.171232,13.12443024,.00018966,87.8953,346.3425,92.4971,267.6375,0,U,47269,999,26754,-.95935603E-3,-.332E-5,0
ONEWEB-0124,2020-100N,2026-07-08T22:10:53.838336,13.12442390,.00017246,87.8950,346.3475,93.7723,266.3602,0,U,47270,999,26742,-.10723916E-2,-.373E-5,0
ONEWEB-0125,2020-100P,2026-07-08T19:49:24.574368,13.12441342,.00016828,87.8966,346.3524,87.1566,272.9756,0,U,47271,999,26747,.2970624E-3,.12E-5,0
ONEWEB-0126,2020-100Q,2026-07-08T22:08:40.299360,13.12442139,.00019478,87.8954,346.3481,94.5078,265.6274,0,U,47272,999,26755,-.11265067E-2,-.393E-5,0
ONEWEB-0127,2020-100R,2026-07-08T19:29:54.102336,13.12442873,.00019818,87.8953,346.3671,96.5027,263.6328,0,U,47273,999,26756,.11958898E-2,.443E-5,0
ONEWEB-0128,2020-100S,2026-07-08T20:01:36.302880,13.12441522,.00016921,87.8953,346.3764,105.1841,254.9474,0,U,47274,999,26758,-.44185704E-3,-.146E-5,0
ONEWEB-0129,2020-100T,2026-07-08T21:22:07.183488,13.12441567,.00029232,87.8959,346.3414,98.6987,261.4473,0,U,47275,999,26752,.10021231E-2,.373E-5,0
