ONEWEB-0068             
1 45446U 20020Y   26189.89793334  .00000535  00000+0  14748-2 0  9997
2 45446  87.8886  16.7418 0001648  88.9524 271.1793 13.11415855305442
ONEWEB-0046             
1 45447U 20020Z   26189.96588311  .00000563  00000+0  15537-2 0  9991
2 45447  87.8876  16.7326 0001737  80.7484 279.3841 13.11417909305462
ONEWEB-0063             
1 45448U 20020AA  26189.91853962 -.00000129  00000+0 -39904-3 0  9999
2 45448  87.8880  16.7405 0001944  87.3708 272.7642 13.11414972305540
ONEWEB-0019             
1 45449U 20020AB  26189.95724072 -.00000276  00000+0 -81389-3 0  9990
2 45449  87.8881  16.7201 0001840  95.9205 264.2133 13.11412066305394
ONEWEB-0094             
1 45450U 20020AC  26189.92069461  .00000022  00000+0  24231-4 0  9994
2 45450  87.9146   1.5268 0001700  97.4525 262.6800 13.17648837309179
ONEWEB-0087             
1 45451U 20020AD  26189.92843184 -.00000482  00000+0 -13955-2 0  9998
2 45451  87.8898  16.7166 0001546  90.6875 269.4430 13.11415927305434
ONEWEB-0082             
1 45452U 20020AE  26189.92504365 -.00000414  00000+0 -12050-2 0  9994
2 45452  87.8889  16.7322 0001404  80.9003 279.2284 13.11415644305529
ONEWEB-0050             
1 45453U 20020AF  26189.62748696  .00001383  00000+0  13971-3 0  9997
2 45453  88.9290 230.2974 0000936 205.3847 154.7336 14.90459345343578
ONEWEB-0034             
1 45454U 20020AG  26189.96263867  .00000440  00000+0  12043-2 0  9998
2 45454  87.8886  16.7339 0001764  89.4648 270.6682 13.11417720305449
ONEWEB-0060             
1 45455U 20020AH  26189.45977521 -.00000287  00000+0 -84571-3 0  9999
2 45455  87.8881  16.8304 0000954 108.3974 251.7257 13.11414617305339
ONEWEB-0086             
1 45456U 20020AJ  26189.89623826  .00000321  00000+0  86944-3 0  9997
2 45456  87.8892  16.7405 0001607 114.3631 245.7665 13.11414576305459
ONEWEB-0088             
1 45457U 20020AK  26189.95061313 -.00000010  00000+0 -62962-4 0  9994
2 45457  87.8896  16.7040 0001844  76.3464 283.7869 13.11418591305395
ONEWEB-0102             
1 47258U 20100A   26189.93779428 -.00000171  00000+0 -51052-3 0  9990
2 47258  87.8954 346.3490 0001948 104.2494 255.8851 13.12443829267583
ONEWEB-0109             
1 47259U 20100B   26189.94626820  .00000110  00000+0  26930-3 0  9997
2 47259  87.8963 346.3325 0001997  97.5694 262.5661 13.12444343267419
ONEWEB-0110             
1 47260U 20100C   26189.66843509  .00000320  00000+0  85464-3 0  9993
2 47260  87.8965 346.3717 0001720 104.7521 255.3798 13.12442204267541
ONEWEB-0111             
1 47261U 20100D   26189.92762759 -.00000412  00000+0 -11809-2 0  9995
2 47261  87.8962 346.3392 0001724  95.5388 264.5937 13.12443290267419
ONEWEB-0114             
1 47262U 20100E   26189.88189024  .00000383  00000+0  10286-2 0  9992
2 47262  87.8965 346.3462 0002047  95.9180 264.2182 13.12442572267369
ONEWEB-0117             
1 47263U 20100F   26189.87341716  .00000228  00000+0  59705-3 0  9998
2 47263  87.8961 346.3377 0001833  95.2136 264.9202 13.12443186267370
ONEWEB-0118             
1 47264U 20100G   26189.67858500 -.00000061  00000+0 -20604-3 0  9994
2 47264  87.8963 346.3791 0002064  88.5036 271.6329 13.12440980267547
ONEWEB-0119             
1 47265U 20100H   26189.93270936 -.00000321  00000+0 -92778-3 0  9995
2 47265  87.8950 346.3438 0001857  95.4398 264.6943 13.12443345267552
ONEWEB-0120             
1 47266U 20100J   26189.88033300  .00000403  00000+0  10861-2 0  9993
2 47266  87.8953 346.3555 0002030  96.6369 263.4991 13.12442466267576
ONEWEB-0121             
1 47267U 20100K   26189.94456784  .00000027  00000+0  40190-4 0  9998
2 47267  87.8963 346.3308 0001527  95.3688 264.7615 13.12443326267498
ONEWEB-0122             
1 47268U 20100L   26189.93863140 -.00000146  00000+0 -44152-3 0  9991
2 47268  87.8964 346.3369 0001926 100.1600 259.9746 13.12445473267406
ONEWEB-0123             
1 47269U 20100M   26189.93440013 -.00000332  00000+0 -95936-3 0  9995
2 47269  87.8953 346.3425 0001896  92.4971 267.6375 13.12443024267547
ONEWEB-0124             
1 47270U 20100N   26189.92423424 -.00000373  00000+0 -10724-2 0  9999
2 47270  87.8950 346.3475 0001724  93.7723 266.3602 13.12442390267421
ONEWEB-0125             
1 47271U 20100P   26189.82597887  .00000120  00000+0  29706-3 0  9993
2 47271  87.8966 346.3524 0001682  87.1566 272.9756 13.12441342267473
ONEWEB-0126             
1 47272U 20100Q   26189.92268865 -.00000393  00000+0 -11265-2 0  9990
2 47272  87.8954 346.3481 0001947  94.5078 265.6274 13.12442139267555
ONEWEB-0127             
1 47273U 20100R   26189.81243174  .00000443  00000+0  11959-2 0  9999
2 47273  87.8953 346.3671 0001981  96.5027 263.6328 13.12442873267564
ONEWEB-0128             
1 47274U 20100S   26189.83444795 -.00000146  00000+0 -44186-3 0  9995
2 47274  87.8953 346.3764 0001692 105.1841 254.9474 13.12441522267585
ONEWEB-0129             
1 47275U 20100T   26189.89036092  .00000373  00000+0  10021-2 0  9999
2 47275  87.8959 346.3414 0002923  98.6987 261.4473 13.12441567267524
